[{"OBJECT_NAME":"STARLINK-30907","OBJECT_ID":"2023-177B","EPOCH":"2025-08-06T23:26:48.945696","MEAN_MOTION":15.0253316,"ECCENTRICITY":8.12e-5,"INCLINATION":43.0019,"RA_OF_ASC_NODE":78.5933,"ARG_OF_PERICENTER":260.4564,"MEAN_ANOMALY":99.6186,"EPHEMERIS_TYPE":0,"CLASSIFICATION_TYPE":"U","NORAD_CAT_ID":58352,"ELEMENT_SET_NO":999,"REV_AT_EPOCH":9592,"BSTAR":1.1819e-5,"MEAN_MOTION_DOT":-4.4e-7,"MEAN_MOTION_DDOT":0},{"OBJECT_NAME":"STARLINK-30896","OBJECT_ID":"2023-177C","EPOCH":"2025-08-07T09:24:45.800928","MEAN_MOTION":15.25901124,"ECCENTRICITY":8.75e-5,"INCLINATION":43.0006,"RA_OF_ASC_NODE":338.749,"ARG_OF_PERICENTER":258.808,"MEAN_ANOMALY":101.2673,"EPHEMERIS_TYPE":0,"CLASSIFICATION_TYPE":"U","NORAD_CAT_ID":58353,"ELEMENT_SET_NO":999,"REV_AT_EPOCH":9697,"BSTAR":1.5074e-5,"MEAN_MOTION_DOT":1.37e-6,"MEAN_MOTION_DDOT":0},{"OBJECT_NAME":"STARLINK-30832","OBJECT_ID":"2023-177D","EPOCH":"2025-08-07T00:08:12.120576","MEAN_MOTION":15.02534797,"ECCENTRICITY":0.0001021,"INCLINATION":43.0043,"RA_OF_ASC_NODE":77.9562,"ARG_OF_PERICENTER":261.1277,"MEAN_ANOMALY":98.9449,"EPHEMERIS_TYPE":0,"CLASSIFICATION_TYPE":"U","NORAD_CAT_ID":58354,"ELEMENT_SET_NO":999,"REV_AT_EPOCH":9577,"BSTAR":-3.0891e-6,"MEAN_MOTION_DOT":-2.45e-6,"MEAN_MOTION_DDOT":0},{"OBJECT_NAME":"STARLINK-30903","OBJECT_ID":"2023-177E","EPOCH":"2025-08-07T23:33:55.270080","MEAN_MOTION":15.02535162,"ECCENTRICITY":0.000112,"INCLINATION":43.0021,"RA_OF_ASC_NODE":73.2447,"ARG_OF_PERICENTER":267.3892,"MEAN_ANOMALY":92.6822,"EPHEMERIS_TYPE":0,"CLASSIFICATION_TYPE":"U","NORAD_CAT_ID":58355,"ELEMENT_SET_NO":999,"REV_AT_EPOCH":9608,"BSTAR":6.2614e-5,"MEAN_MOTION_DOT":6.42e-6,"MEAN_MOTION_DDOT":0},{"OBJECT_NAME":"STARLINK-30905","OBJECT_ID":"2023-177F","EPOCH":"2025-08-07T00:56:08.551968","MEAN_MOTION":15.02532711,"ECCENTRICITY":0.0001073,"INCLINATION":43.0041,"RA_OF_ASC_NODE":78.1736,"ARG_OF_PERICENTER":258.1772,"MEAN_ANOMALY":101.895,"EPHEMERIS_TYPE":0,"CLASSIFICATION_TYPE":"U","NORAD_CAT_ID":58356,"ELEMENT_SET_NO":999,"REV_AT_EPOCH":9589,"BSTAR":3.1297e-5,"MEAN_MOTION_DOT":2.19e-6,"MEAN_MOTION_DDOT":0},{"OBJECT_NAME":"STARLINK-30842","OBJECT_ID":"2023-177G","EPOCH":"2025-08-07T22:49:12.084384","MEAN_MOTION":15.02536407,"ECCENTRICITY":0.00012,"INCLINATION":43.0041,"RA_OF_ASC_NODE":59.2015,"ARG_OF_PERICENTER":263.5429,"MEAN_ANOMALY":96.5277,"EPHEMERIS_TYPE":0,"CLASSIFICATION_TYPE":"U","NORAD_CAT_ID":58357,"ELEMENT_SET_NO":999,"REV_AT_EPOCH":9627,"BSTAR":2.3238e-6,"MEAN_MOTION_DOT":-1.72e-6,"MEAN_MOTION_DDOT":0},{"OBJECT_NAME":"STARLINK-30858","OBJECT_ID":"2023-177H","EPOCH":"2025-08-07T23:24:20.046528","MEAN_MOTION":15.02533611,"ECCENTRICITY":0.0001104,"INCLINATION":43.002,"RA_OF_ASC_NODE":73.1924,"ARG_OF_PERICENTER":272.621,"MEAN_ANOMALY":87.4506,"EPHEMERIS_TYPE":0,"CLASSIFICATION_TYPE":"U","NORAD_CAT_ID":58358,"ELEMENT_SET_NO":999,"REV_AT_EPOCH":9608,"BSTAR":4.3983e-5,"MEAN_MOTION_DOT":3.91e-6,"MEAN_MOTION_DDOT":0},{"OBJECT_NAME":"STARLINK-30878","OBJECT_ID":"2023-177J","EPOCH":"2025-08-07T23:56:07.695456","MEAN_MOTION":15.02536992,"ECCENTRICITY":9.92e-5,"INCLINATION":43.003,"RA_OF_ASC_NODE":72.4921,"ARG_OF_PERICENTER":273.1613,"MEAN_ANOMALY":86.9115,"EPHEMERIS_TYPE":0,"CLASSIFICATION_TYPE":"U","NORAD_CAT_ID":58359,"ELEMENT_SET_NO":999,"REV_AT_EPOCH":9608,"BSTAR":1.6653e-5,"MEAN_MOTION_DOT":2.1e-7,"MEAN_MOTION_DDOT":0},{"OBJECT_NAME":"STARLINK-30897","OBJECT_ID":"2023-177K","EPOCH":"2025-08-07T23:29:07.614240","MEAN_MOTION":15.02535769,"ECCENTRICITY":0.0001166,"INCLINATION":43.0044,"RA_OF_ASC_NODE":73.2167,"ARG_OF_PERICENTER":258.9141,"MEAN_ANOMALY":101.157,"EPHEMERIS_TYPE":0,"CLASSIFICATION_TYPE":"U","NORAD_CAT_ID":58360,"ELEMENT_SET_NO":999,"REV_AT_EPOCH":9609,"BSTAR":2.1836e-5,"MEAN_MOTION_DOT":9.1e-7,"MEAN_MOTION_DDOT":0},{"OBJECT_NAME":"STARLINK-30885","OBJECT_ID":"2023-177L","EPOCH":"2025-08-07T07:17:28.218912","MEAN_MOTION":15.0253074,"ECCENTRICITY":0.0001266,"INCLINATION":43.0031,"RA_OF_ASC_NODE":76.7564,"ARG_OF_PERICENTER":265.6743,"MEAN_ANOMALY":94.3955,"EPHEMERIS_TYPE":0,"CLASSIFICATION_TYPE":"U","NORAD_CAT_ID":58361,"ELEMENT_SET_NO":999,"REV_AT_EPOCH":9598,"BSTAR":-0.00022387,"MEAN_MOTION_DOT":-3.226e-5,"MEAN_MOTION_DDOT":0},{"OBJECT_NAME":"STARLINK-30890","OBJECT_ID":"2023-177M","EPOCH":"2025-08-07T23:09:57.153312","MEAN_MOTION":15.02532609,"ECCENTRICITY":0.0001217,"INCLINATION":43.0024,"RA_OF_ASC_NODE":73.1138,"ARG_OF_PERICENTER":273.2805,"MEAN_ANOMALY":86.7899,"EPHEMERIS_TYPE":0,"CLASSIFICATION_TYPE":"U","NORAD_CAT_ID":58362,"ELEMENT_SET_NO":999,"REV_AT_EPOCH":9602,"BSTAR":-1.6363e-5,"MEAN_MOTION_DOT":-4.25e-6,"MEAN_MOTION_DDOT":0},{"OBJECT_NAME":"STARLINK-30909","OBJECT_ID":"2023-177N","EPOCH":"2025-08-07T07:11:04.639200","MEAN_MOTION":15.02529808,"ECCENTRICITY":0.0001267,"INCLINATION":43.0036,"RA_OF_ASC_NODE":76.7212,"ARG_OF_PERICENTER":262.8915,"MEAN_ANOMALY":97.1784,"EPHEMERIS_TYPE":0,"CLASSIFICATION_TYPE":"U","NORAD_CAT_ID":58363,"ELEMENT_SET_NO":999,"REV_AT_EPOCH":9597,"BSTAR":-8.4149e-5,"MEAN_MOTION_DOT":-1.34e-5,"MEAN_MOTION_DDOT":0},{"OBJECT_NAME":"STARLINK-30904","OBJECT_ID":"2023-177P","EPOCH":"2025-08-07T23:12:37.837440","MEAN_MOTION":15.0253439,"ECCENTRICITY":0.0001045,"INCLINATION":43.0037,"RA_OF_ASC_NODE":71.4132,"ARG_OF_PERICENTER":270.1633,"MEAN_ANOMALY":89.9089,"EPHEMERIS_TYPE":0,"CLASSIFICATION_TYPE":"U","NORAD_CAT_ID":58364,"ELEMENT_SET_NO":999,"REV_AT_EPOCH":9609,"BSTAR":3.6878e-5,"MEAN_MOTION_DOT":2.95e-6,"MEAN_MOTION_DDOT":0},{"OBJECT_NAME":"STARLINK-30918","OBJECT_ID":"2023-177Q","EPOCH":"2025-08-08T00:31:17.465088","MEAN_MOTION":15.02534555,"ECCENTRICITY":0.0001144,"INCLINATION":43.0035,"RA_OF_ASC_NODE":72.6808,"ARG_OF_PERICENTER":258.7095,"MEAN_ANOMALY":101.3619,"EPHEMERIS_TYPE":0,"CLASSIFICATION_TYPE":"U","NORAD_CAT_ID":58365,"ELEMENT_SET_NO":999,"REV_AT_EPOCH":9608,"BSTAR":2.4552e-5,"MEAN_MOTION_DOT":1.28e-6,"MEAN_MOTION_DDOT":0},{"OBJECT_NAME":"STARLINK-30892","OBJECT_ID":"2023-177R","EPOCH":"2025-08-07T23:00:21.490848","MEAN_MOTION":15.02535523,"ECCENTRICITY":0.0001212,"INCLINATION":43.0037,"RA_OF_ASC_NODE":73.0675,"ARG_OF_PERICENTER":266.3402,"MEAN_ANOMALY":93.7302,"EPHEMERIS_TYPE":0,"CLASSIFICATION_TYPE":"U","NORAD_CAT_ID":58366,"ELEMENT_SET_NO":999,"REV_AT_EPOCH":9607,"BSTAR":2.4717e-5,"MEAN_MOTION_DOT":1.3e-6,"MEAN_MOTION_DDOT":0},{"OBJECT_NAME":"STARLINK-30891","OBJECT_ID":"2023-177S","EPOCH":"2025-08-08T00:26:29.939712","MEAN_MOTION":15.02530963,"ECCENTRICITY":8.4e-5,"INCLINATION":43.0031,"RA_OF_ASC_NODE":72.653,"ARG_OF_PERICENTER":258.4623,"MEAN_ANOMALY":101.6125,"EPHEMERIS_TYPE":0,"CLASSIFICATION_TYPE":"U","NORAD_CAT_ID":58367,"ELEMENT_SET_NO":999,"REV_AT_EPOCH":9592,"BSTAR":4.1381e-5,"MEAN_MOTION_DOT":3.55e-6,"MEAN_MOTION_DDOT":0},{"OBJECT_NAME":"STARLINK-30889","OBJECT_ID":"2023-177T","EPOCH":"2025-08-07T22:53:57.907680","MEAN_MOTION":15.02538087,"ECCENTRICITY":0.0001024,"INCLINATION":43.0031,"RA_OF_ASC_NODE":73.0326,"ARG_OF_PERICENTER":272.7873,"MEAN_ANOMALY":87.2852,"EPHEMERIS_TYPE":0,"CLASSIFICATION_TYPE":"U","NORAD_CAT_ID":58368,"ELEMENT_SET_NO":999,"REV_AT_EPOCH":9607,"BSTAR":3.963e-5,"MEAN_MOTION_DOT":3.32e-6,"MEAN_MOTION_DDOT":0}]
