STARLINK-30907          
1 58352U 23177B   25218.97695539 -.00000044  00000+0  11819-4 0  9996
2 58352  43.0019  78.5933 0000812 260.4564  99.6186 15.02533160 95925
STARLINK-30896          
1 58353U 23177C   25219.39219677  .00000137  00000+0  15074-4 0  9998
2 58353  43.0006 338.7490 0000875 258.8080 101.2673 15.25901124 96975
STARLINK-30832          
1 58354U 23177D   25219.00569584 -.00000245  00000+0 -30891-5 0  9999
2 58354  43.0043  77.9562 0001021 261.1277  98.9449 15.02534797 95771
STARLINK-30903          
1 58355U 23177E   25219.98188970  .00000642  00000+0  62614-4 0  9999
2 58355  43.0021  73.2447 0001120 267.3892  92.6822 15.02535162 96088
STARLINK-30905          
1 58356U 23177F   25219.03898787  .00000219  00000+0  31297-4 0  9993
2 58356  43.0041  78.1736 0001073 258.1772 101.8950 15.02532711 95898
STARLINK-30842          
1 58357U 23177G   25219.95083431 -.00000172  00000+0  23238-5 0  9993
2 58357  43.0041  59.2015 0001200 263.5429  96.5277 15.02536407 96271
STARLINK-30858          
1 58358U 23177H   25219.97523202  .00000391  00000+0  43983-4 0  9991
2 58358  43.0020  73.1924 0001104 272.6210  87.4506 15.02533611 96082
STARLINK-30878          
1 58359U 23177J   25219.99731129  .00000021  00000+0  16653-4 0  9997
2 58359  43.0030  72.4921 0000992 273.1613  86.9115 15.02536992 96085
STARLINK-30897          
1 58360U 23177K   25219.97856035  .00000091  00000+0  21836-4 0  9997
2 58360  43.0044  73.2167 0001166 258.9141 101.1570 15.02535769 96091
STARLINK-30885          
1 58361U 23177L   25219.30379883 -.00003226  00000+0 -22387-3 0  9992
2 58361  43.0031  76.7564 0001266 265.6743  94.3955 15.02530740 95982
STARLINK-30890          
1 58362U 23177M   25219.96524483 -.00000425  00000+0 -16363-4 0  9999
2 58362  43.0024  73.1138 0001217 273.2805  86.7899 15.02532609 96027
STARLINK-30909          
1 58363U 23177N   25219.29935925 -.00001340  00000+0 -84149-4 0  9997
2 58363  43.0036  76.7212 0001267 262.8915  97.1784 15.02529808 95973
STARLINK-30904          
1 58364U 23177P   25219.96710460  .00000295  00000+0  36878-4 0  9999
2 58364  43.0037  71.4132 0001045 270.1633  89.9089 15.02534390 96094
STARLINK-30918          
1 58365U 23177Q   25220.02172992  .00000128  00000+0  24552-4 0  9992
2 58365  43.0035  72.6808 0001144 258.7095 101.3619 15.02534555 96080
STARLINK-30892          
1 58366U 23177R   25219.95858207  .00000130  00000+0  24717-4 0  9999
2 58366  43.0037  73.0675 0001212 266.3402  93.7302 15.02535523 96071
STARLINK-30891          
1 58367U 23177S   25220.01840208  .00000355  00000+0  41381-4 0  9996
2 58367  43.0031  72.6530 0000840 258.4623 101.6125 15.02530963 95922
STARLINK-30889          
1 58368U 23177T   25219.95414245  .00000332  00000+0  39630-4 0  9995
2 58368  43.0031  73.0326 0001024 272.7873  87.2852 15.02538087 96070
